[
    {
        "Altitude(m)": 714364.864626455,
        "Argument of Periapsis(deg)": 0.007973084830638947,
        "Eccentricity": 0.0,
        "Inclination(deg)": 45.0,
        "Latitude(deg)": -36.62955781425465,
        "Longitude(deg)": -87.84587836600473,
        "Mean Anomaly(deg)": -122.83584834676344,
        "RAAN(deg)": 144.99247364097926,
        "Satellite Name": "Constellation 1 652",
        "Satellite Number": 652,
        "Semi-Major Axis(m)": 7083131.272910544,
        "Time(s)": 133
    },
    {
        "Altitude(m)": 714376.703614534,
        "Argument of Periapsis(deg)": 0.008033032836884352,
        "Eccentricity": 0.0,
        "Inclination(deg)": 45.0,
        "Latitude(deg)": -36.65846581417707,
        "Longitude(deg)": -87.78372518058761,
        "Mean Anomaly(deg)": -122.77514720651351,
        "RAAN(deg)": 144.9924170518137,
        "Satellite Name": "Constellation 1 652",
        "Satellite Number": 652,
        "Semi-Major Axis(m)": 7083131.272910544,
        "Time(s)": 134
    },
    {
        "Altitude(m)": 714388.529021607,
        "Argument of Periapsis(deg)": 0.008092980843129758,
        "Eccentricity": 0.0,
        "Inclination(deg)": 45.0,
        "Latitude(deg)": -36.68733674541192,
        "Longitude(deg)": -87.72152260794375,
        "Mean Anomaly(deg)": -122.71444606626358,
        "RAAN(deg)": 144.99236046264812,
        "Satellite Name": "Constellation 1 652",
        "Satellite Number": 652,
        "Semi-Major Axis(m)": 7083131.272910544,
        "Time(s)": 135
    },
    {
        "Altitude(m)": 714400.3408049569,
        "Argument of Periapsis(deg)": 0.008152928849375162,
        "Eccentricity": 0.0,
        "Inclination(deg)": 45.0,
        "Latitude(deg)": -36.71617054242375,
        "Longitude(deg)": -87.65927062248015,
        "Mean Anomaly(deg)": -122.65374492601372,
        "RAAN(deg)": 144.99230387348257,
        "Satellite Name": "Constellation 1 652",
        "Satellite Number": 652,
        "Semi-Major Axis(m)": 7083131.272910544,
        "Time(s)": 136
    },
    {
        "Altitude(m)": 714412.1389219095,
        "Argument of Periapsis(deg)": 0.008212876855620568,
        "Eccentricity": 0.0,
        "Inclination(deg)": 45.0,
        "Latitude(deg)": -36.74496713962731,
        "Longitude(deg)": -87.59696919887645,
        "Mean Anomaly(deg)": -122.59304378576383,
        "RAAN(deg)": 144.992247284317,
        "Satellite Name": "Constellation 1 652",
        "Satellite Number": 652,
        "Semi-Major Axis(m)": 7083131.272910544,
        "Time(s)": 137
    },
    {
        "Altitude(m)": 714423.923329843,
        "Argument of Periapsis(deg)": 0.008272824861865974,
        "Eccentricity": 0.0,
        "Inclination(deg)": 45.0,
        "Latitude(deg)": -36.77372647138806,
        "Longitude(deg)": -87.53461831208583,
        "Mean Anomaly(deg)": -122.53234264551384,
        "RAAN(deg)": 144.9921906951514,
        "Satellite Name": "Constellation 1 652",
        "Satellite Number": 652,
        "Semi-Major Axis(m)": 7083131.272910544,
        "Time(s)": 138
    },
    {
        "Altitude(m)": 714435.6939861757,
        "Argument of Periapsis(deg)": 0.00833277286811138,
        "Eccentricity": 0.0,
        "Inclination(deg)": 45.0,
        "Latitude(deg)": -36.802448472022235,
        "Longitude(deg)": -87.4722179373368,
        "Mean Anomaly(deg)": -122.471641505264,
        "RAAN(deg)": 144.99213410598585,
        "Satellite Name": "Constellation 1 652",
        "Satellite Number": 652,
        "Semi-Major Axis(m)": 7083131.272910544,
        "Time(s)": 139
    },
    {
        "Altitude(m)": 714447.450848374,
        "Argument of Periapsis(deg)": 0.008392720874356788,
        "Eccentricity": 0.0,
        "Inclination(deg)": 45.0,
        "Latitude(deg)": -36.83113307579736,
        "Longitude(deg)": -87.40976805013416,
        "Mean Anomaly(deg)": -122.41094036501411,
        "RAAN(deg)": 144.99207751682027,
        "Satellite Name": "Constellation 1 652",
        "Satellite Number": 652,
        "Semi-Major Axis(m)": 7083131.272910544,
        "Time(s)": 140
    },
    {
        "Altitude(m)": 714459.1938739425,
        "Argument of Periapsis(deg)": 0.008452668880602192,
        "Eccentricity": 0.0,
        "Inclination(deg)": 45.0,
        "Latitude(deg)": -36.85978021693247,
        "Longitude(deg)": -87.34726879435779,
        "Mean Anomaly(deg)": -122.35023922476422,
        "RAAN(deg)": 144.99202092765472,
        "Satellite Name": "Constellation 1 652",
        "Satellite Number": 652,
        "Semi-Major Axis(m)": 7083131.272910544,
        "Time(s)": 141
    },
    {
        "Altitude(m)": 714470.9230204435,
        "Argument of Periapsis(deg)": 0.008512616886847598,
        "Eccentricity": 0.0,
        "Inclination(deg)": 45.0,
        "Latitude(deg)": -36.88838982959842,
        "Longitude(deg)": -87.28471980987506,
        "Mean Anomaly(deg)": -122.28953808451426,
        "RAAN(deg)": 144.99196433848914,
        "Satellite Name": "Constellation 1 652",
        "Satellite Number": 652,
        "Semi-Major Axis(m)": 7083131.272910544,
        "Time(s)": 142
    },
    {
        "Altitude(m)": 714482.6382454801,
        "Argument of Periapsis(deg)": 0.008572564893093004,
        "Eccentricity": 0.0,
        "Inclination(deg)": 45.0,
        "Latitude(deg)": -36.916961847918046,
        "Longitude(deg)": -87.22212124112603,
        "Mean Anomaly(deg)": -122.22883694426446,
        "RAAN(deg)": 144.9919077493236,
        "Satellite Name": "Constellation 1 652",
        "Satellite Number": 652,
        "Semi-Major Axis(m)": 7083131.272910544,
        "Time(s)": 143
    },
    {
        "Altitude(m)": 714494.3395066959,
        "Argument of Periapsis(deg)": 0.008632512899338408,
        "Eccentricity": 0.0,
        "Inclination(deg)": 45.0,
        "Latitude(deg)": -36.94549620596684,
        "Longitude(deg)": -87.15947306473488,
        "Mean Anomaly(deg)": -122.1681358040145,
        "RAAN(deg)": 144.991851160158,
        "Satellite Name": "Constellation 1 652",
        "Satellite Number": 652,
        "Semi-Major Axis(m)": 7083131.272910544,
        "Time(s)": 144
    },
    {
        "Altitude(m)": 714506.0267617883,
        "Argument of Periapsis(deg)": 0.008692460905583814,
        "Eccentricity": 0.0,
        "Inclination(deg)": 45.0,
        "Latitude(deg)": -36.973992837772826,
        "Longitude(deg)": -87.09677525760964,
        "Mean Anomaly(deg)": -122.10743466376464,
        "RAAN(deg)": 144.99179457099245,
        "Satellite Name": "Constellation 1 652",
        "Satellite Number": 652,
        "Semi-Major Axis(m)": 7083131.272910544,
        "Time(s)": 145
    },
    {
        "Altitude(m)": 714517.6999684974,
        "Argument of Periapsis(deg)": 0.00875240891182922,
        "Eccentricity": 0.0,
        "Inclination(deg)": 45.0,
        "Latitude(deg)": -37.00245167731721,
        "Longitude(deg)": -87.03402779694285,
        "Mean Anomaly(deg)": -122.04673352351472,
        "RAAN(deg)": 144.99173798182684,
        "Satellite Name": "Constellation 1 652",
        "Satellite Number": 652,
        "Semi-Major Axis(m)": 7083131.272910544,
        "Time(s)": 146
    },
    {
        "Altitude(m)": 714529.3590846127,
        "Argument of Periapsis(deg)": 0.008812356918074627,
        "Eccentricity": 0.0,
        "Inclination(deg)": 45.0,
        "Latitude(deg)": -37.03087265853459,
        "Longitude(deg)": -86.97123066021327,
        "Mean Anomaly(deg)": -121.9860323832648,
        "RAAN(deg)": 144.9916813926613,
        "Satellite Name": "Constellation 1 652",
        "Satellite Number": 652,
        "Semi-Major Axis(m)": 7083131.272910544,
        "Time(s)": 147
    },
    {
        "Altitude(m)": 714541.0040679671,
        "Argument of Periapsis(deg)": 0.008872304924320031,
        "Eccentricity": 0.0,
        "Inclination(deg)": 45.0,
        "Latitude(deg)": -37.0592557153131,
        "Longitude(deg)": -86.9083839932844,
        "Mean Anomaly(deg)": -121.92533124301495,
        "RAAN(deg)": 144.9916248034957,
        "Satellite Name": "Constellation 1 652",
        "Satellite Number": 652,
        "Semi-Major Axis(m)": 7083131.272910544,
        "Time(s)": 148
    },
    {
        "Altitude(m)": 714552.634876446,
        "Argument of Periapsis(deg)": 0.008932252930565437,
        "Eccentricity": 0.0,
        "Inclination(deg)": 45.0,
        "Latitude(deg)": -37.08760078149514,
        "Longitude(deg)": -86.84548743801669,
        "Mean Anomaly(deg)": -121.86463010276498,
        "RAAN(deg)": 144.99156821433016,
        "Satellite Name": "Constellation 1 652",
        "Satellite Number": 652,
        "Semi-Major Axis(m)": 7083131.272910544,
        "Time(s)": 149
    },
    {
        "Altitude(m)": 714564.2514679757,
        "Argument of Periapsis(deg)": 0.008992200936810843,
        "Eccentricity": 0.0,
        "Inclination(deg)": 45.0,
        "Latitude(deg)": -37.11590779087718,
        "Longitude(deg)": -86.78254114085308,
        "Mean Anomaly(deg)": -121.80392896251514,
        "RAAN(deg)": 144.9915116251646,
        "Satellite Name": "Constellation 1 652",
        "Satellite Number": 652,
        "Semi-Major Axis(m)": 7083131.272910544,
        "Time(s)": 150
    },
    {
        "Altitude(m)": 714575.853800534,
        "Argument of Periapsis(deg)": 0.009052148943056249,
        "Eccentricity": 0.0,
        "Inclination(deg)": 45.0,
        "Latitude(deg)": -37.14417667721058,
        "Longitude(deg)": -86.71954508043035,
        "Mean Anomaly(deg)": -121.74322782226521,
        "RAAN(deg)": 144.991455035999,
        "Satellite Name": "Constellation 1 652",
        "Satellite Number": 652,
        "Semi-Major Axis(m)": 7083131.272910544,
        "Time(s)": 151
    }
]